start=new Date('2022-09-07T00:00:00.000Z').valueOf();
sats=[{"EPHEMERIS_TYPE":"0","BSTAR":"-0.00009408800000","GP_ID":"211920527","MEAN_ANOMALY":"271.1083","REF_FRAME":"TEME","OBJECT_ID":"2021-038AE","MEAN_MOTION_DOT":"-0.00001682","DECAY_DATE":null,"OBJECT_TYPE":"PAYLOAD","TLE_LINE1":"1 48381U 21038AE  22249.56487139 -.00001682  00000-0 -94088-4 0  9992","PERIAPSIS":"546.315","COUNTRY_CODE":"US","RCS_SIZE":"LARGE","CLASSIFICATION_TYPE":"U","FILE":"3561419","EPOCH":"2022-09-06T13:33:24.888096","LAUNCH_DATE":"2021-05-04","TLE_LINE2":"2 48381  53.0564 338.3279 0001372  89.0063 271.1083 15.06383200 74228","APOAPSIS":"548.215","RA_OF_ASC_NODE":"338.3279","PERIOD":"95.593","SITE":"AFETR","CENTER_NAME":"EARTH","ARG_OF_PERICENTER":"89.0063","REV_AT_EPOCH":"7422","MEAN_MOTION_DDOT":"0.0000000000000","OBJECT_NAME":"STARLINK-2630","ECCENTRICITY":"0.00013720","MEAN_MOTION":"15.06383200","TIME_SYSTEM":"UTC","SEMIMAJOR_AXIS":"6925.400","ELEMENT_SET_NO":"999","INCLINATION":"53.0564","MEAN_ELEMENT_THEORY":"SGP4","NORAD_CAT_ID":"48381"},{"NORAD_CAT_ID":"48382","MEAN_ELEMENT_THEORY":"SGP4","INCLINATION":"53.0542","TIME_SYSTEM":"UTC","ELEMENT_SET_NO":"999","SEMIMAJOR_AXIS":"6925.403","MEAN_MOTION":"15.06382213","ECCENTRICITY":"0.00013110","OBJECT_NAME":"STARLINK-2585","ARG_OF_PERICENTER":"84.1370","REV_AT_EPOCH":"7423","CENTER_NAME":"EARTH","SITE":"AFETR","PERIOD":"95.593","MEAN_MOTION_DDOT":"0.0000000000000","RA_OF_ASC_NODE":"338.0552","APOAPSIS":"548.176","EPOCH":"2022-09-06T15:03:38.493504","LAUNCH_DATE":"2021-05-04","TLE_LINE2":"2 48382  53.0542 338.0552 0001311  84.1370 275.9769 15.06382213 74233","RCS_SIZE":"LARGE","FILE":"3561419","CLASSIFICATION_TYPE":"U","COUNTRY_CODE":"US","OBJECT_TYPE":"PAYLOAD","PERIAPSIS":"546.360","TLE_LINE1":"1 48382U 21038AF  22249.62752886 -.00002890  00000-0 -17528-3 0  9999","MEAN_MOTION_DOT":"-0.00002890","OBJECT_ID":"2021-038AF","DECAY_DATE":null,"REF_FRAME":"TEME","MEAN_ANOMALY":"275.9769","EPHEMERIS_TYPE":"0","GP_ID":"211920778","BSTAR":"-0.00017528000000"},{"GP_ID":"211920026","BSTAR":"-0.00025990000000","EPHEMERIS_TYPE":"0","MEAN_ANOMALY":"285.4475","REF_FRAME":"TEME","DECAY_DATE":null,"MEAN_MOTION_DOT":"-0.00004148","OBJECT_ID":"2021-038AG","PERIAPSIS":"546.388","TLE_LINE1":"1 48383U 21038AG  22249.69019955 -.00004148  00000-0 -25990-3 0  9990","OBJECT_TYPE":"PAYLOAD","COUNTRY_CODE":"US","FILE":"3561419","CLASSIFICATION_TYPE":"U","RCS_SIZE":"LARGE","TLE_LINE2":"2 48383  53.0555 337.7753 0001308  74.6658 285.4475 15.06373963 75464","LAUNCH_DATE":"2021-05-04","EPOCH":"2022-09-06T16:33:53.241120","APOAPSIS":"548.199","RA_OF_ASC_NODE":"337.7753","MEAN_MOTION_DDOT":"0.0000000000000","ARG_OF_PERICENTER":"74.6658","REV_AT_EPOCH":"7546","SITE":"AFETR","PERIOD":"95.594","CENTER_NAME":"EARTH","OBJECT_NAME":"STARLINK-2599","MEAN_MOTION":"15.06373963","ECCENTRICITY":"0.00013080","SEMIMAJOR_AXIS":"6925.428","ELEMENT_SET_NO":"999","TIME_SYSTEM":"UTC","MEAN_ELEMENT_THEORY":"SGP4","NORAD_CAT_ID":"48383","INCLINATION":"53.0555"},{"RCS_SIZE":"LARGE","CLASSIFICATION_TYPE":"U","FILE":"3561419","OBJECT_TYPE":"PAYLOAD","TLE_LINE1":"1 48384U 21038AH  22249.68651242 -.00004076  00000-0 -25507-3 0  9995","PERIAPSIS":"546.511","COUNTRY_CODE":"US","REF_FRAME":"TEME","OBJECT_ID":"2021-038AH","MEAN_MOTION_DOT":"-0.00004076","DECAY_DATE":null,"EPHEMERIS_TYPE":"0","BSTAR":"-0.00025507000000","GP_ID":"211920274","MEAN_ANOMALY":"279.1758","TIME_SYSTEM":"UTC","SEMIMAJOR_AXIS":"6925.426","ELEMENT_SET_NO":"999","INCLINATION":"53.0556","MEAN_ELEMENT_THEORY":"SGP4","NORAD_CAT_ID":"48384","OBJECT_NAME":"STARLINK-2601","ECCENTRICITY":"0.00011260","MEAN_MOTION":"15.06374805","RA_OF_ASC_NODE":"337.7856","PERIOD":"95.594","SITE":"AFETR","CENTER_NAME":"EARTH","ARG_OF_PERICENTER":"80.9359","REV_AT_EPOCH":"7546","MEAN_MOTION_DDOT":"0.0000000000000","LAUNCH_DATE":"2021-05-04","EPOCH":"2022-09-06T16:28:34.673088","TLE_LINE2":"2 48384  53.0556 337.7856 0001126  80.9359 279.1758 15.06374805 75466","APOAPSIS":"548.071"},{"MEAN_ANOMALY":"257.4946","GP_ID":"211921027","BSTAR":"-0.00018098000000","EPHEMERIS_TYPE":"0","DECAY_DATE":null,"MEAN_MOTION_DOT":"-0.00002974","OBJECT_ID":"2021-038AJ","REF_FRAME":"TEME","COUNTRY_CODE":"US","PERIAPSIS":"546.464","TLE_LINE1":"1 48385U 21038AJ  22249.55012872 -.00002974  00000-0 -18098-3 0  9994","OBJECT_TYPE":"PAYLOAD","FILE":"3561419","CLASSIFICATION_TYPE":"U","RCS_SIZE":"LARGE","APOAPSIS":"548.107","TLE_LINE2":"2 48385  53.0559 338.3975 0001186 102.6176 257.4946 15.06376583 75445","LAUNCH_DATE":"2021-05-04","EPOCH":"2022-09-06T13:12:11.121408","MEAN_MOTION_DDOT":"0.0000000000000","REV_AT_EPOCH":"7544","ARG_OF_PERICENTER":"102.6176","PERIOD":"95.594","SITE":"AFETR","CENTER_NAME":"EARTH","RA_OF_ASC_NODE":"338.3975","MEAN_MOTION":"15.06376583","ECCENTRICITY":"0.00011860","OBJECT_NAME":"STARLINK-2598","MEAN_ELEMENT_THEORY":"SGP4","NORAD_CAT_ID":"48385","INCLINATION":"53.0559","SEMIMAJOR_AXIS":"6925.420","ELEMENT_SET_NO":"999","TIME_SYSTEM":"UTC"},{"DECAY_DATE":null,"OBJECT_ID":"2021-038AK","MEAN_MOTION_DOT":"-0.00004360","REF_FRAME":"TEME","MEAN_ANOMALY":"276.4470","BSTAR":"-0.00027411000000","GP_ID":"211893441","EPHEMERIS_TYPE":"0","CLASSIFICATION_TYPE":"U","FILE":"3561168","RCS_SIZE":"LARGE","COUNTRY_CODE":"US","TLE_LINE1":"1 48386U 21038AK  22249.47134516 -.00004360  00000-0 -27411-3 0  9996","PERIAPSIS":"546.315","OBJECT_TYPE":"PAYLOAD","MEAN_MOTION_DDOT":"0.0000000000000","SITE":"AFETR","PERIOD":"95.593","CENTER_NAME":"EARTH","REV_AT_EPOCH":"7486","ARG_OF_PERICENTER":"83.6676","RA_OF_ASC_NODE":"333.7604","APOAPSIS":"548.227","TLE_LINE2":"2 48386  53.0571 333.7604 0001381  83.6676 276.4470 15.06381231 74862","LAUNCH_DATE":"2021-05-04","EPOCH":"2022-09-06T11:18:44.221824","INCLINATION":"53.0571","NORAD_CAT_ID":"48386","MEAN_ELEMENT_THEORY":"SGP4","ELEMENT_SET_NO":"999","SEMIMAJOR_AXIS":"6925.406","TIME_SYSTEM":"UTC","ECCENTRICITY":"0.00013810","MEAN_MOTION":"15.06381231","OBJECT_NAME":"STARLINK-2606"},{"EPHEMERIS_TYPE":"0","GP_ID":"211919527","BSTAR":"-0.00028356000000","MEAN_ANOMALY":"280.6522","REF_FRAME":"TEME","MEAN_MOTION_DOT":"-0.00004500","OBJECT_ID":"2021-038AL","DECAY_DATE":null,"OBJECT_TYPE":"PAYLOAD","PERIAPSIS":"546.350","TLE_LINE1":"1 48387U 21038AL  22249.63352533 -.00004500  00000-0 -28356-3 0  9991","COUNTRY_CODE":"US","RCS_SIZE":"MEDIUM","FILE":"3561419","CLASSIFICATION_TYPE":"U","LAUNCH_DATE":"2021-05-04","EPOCH":"2022-09-06T15:12:16.588512","TLE_LINE2":"2 48387  53.0563 332.9935 0001336  79.4617 280.6522 15.06380039 74309","APOAPSIS":"548.200","RA_OF_ASC_NODE":"332.9935","REV_AT_EPOCH":"7430","ARG_OF_PERICENTER":"79.4617","SITE":"AFETR","CENTER_NAME":"EARTH","PERIOD":"95.593","MEAN_MOTION_DDOT":"0.0000000000000","OBJECT_NAME":"STARLINK-2600","MEAN_MOTION":"15.06380039","ECCENTRICITY":"0.00013360","TIME_SYSTEM":"UTC","SEMIMAJOR_AXIS":"6925.410","ELEMENT_SET_NO":"999","NORAD_CAT_ID":"48387","MEAN_ELEMENT_THEORY":"SGP4","INCLINATION":"53.0563"},{"ELEMENT_SET_NO":"999","SEMIMAJOR_AXIS":"6925.322","TIME_SYSTEM":"UTC","INCLINATION":"53.0561","NORAD_CAT_ID":"48388","MEAN_ELEMENT_THEORY":"SGP4","OBJECT_NAME":"STARLINK-2594","ECCENTRICITY":"0.00010800","MEAN_MOTION":"15.06408718","RA_OF_ASC_NODE":"333.3331","MEAN_MOTION_DDOT":"0.0000000000000","SITE":"AFETR","CENTER_NAME":"EARTH","PERIOD":"95.592","ARG_OF_PERICENTER":"92.1475","REV_AT_EPOCH":"7429","TLE_LINE2":"2 48388  53.0561 333.3331 0001080  92.1475 267.9637 15.06408718 74291","EPOCH":"2022-09-06T13:31:23.585952","LAUNCH_DATE":"2021-05-04","APOAPSIS":"547.935","CLASSIFICATION_TYPE":"U","FILE":"3561419","RCS_SIZE":"LARGE","TLE_LINE1":"1 48388U 21038AM  22249.56346743 -.00001944  00000-0 -11162-3 0  9996","PERIAPSIS":"546.439","OBJECT_TYPE":"PAYLOAD","COUNTRY_CODE":"US","REF_FRAME":"TEME","DECAY_DATE":null,"OBJECT_ID":"2021-038AM","MEAN_MOTION_DOT":"-0.00001944","BSTAR":"-0.00011162000000","GP_ID":"211919775","EPHEMERIS_TYPE":"0","MEAN_ANOMALY":"267.9637"},{"APOAPSIS":"548.204","EPOCH":"2022-09-06T11:36:35.393472","LAUNCH_DATE":"2021-05-04","TLE_LINE2":"2 48389  53.0553 328.6876 0001297 105.9581 254.1551 15.06369889 74934","ARG_OF_PERICENTER":"105.9581","REV_AT_EPOCH":"7493","PERIOD":"95.594","SITE":"AFETR","CENTER_NAME":"EARTH","MEAN_MOTION_DDOT":"0.0000000000000","RA_OF_ASC_NODE":"328.6876","MEAN_MOTION":"15.06369889","ECCENTRICITY":"0.00012970","OBJECT_NAME":"STARLINK-1904","NORAD_CAT_ID":"48389","MEAN_ELEMENT_THEORY":"SGP4","INCLINATION":"53.0553","TIME_SYSTEM":"UTC","ELEMENT_SET_NO":"999","SEMIMAJOR_AXIS":"6925.441","MEAN_ANOMALY":"254.1551","EPHEMERIS_TYPE":"0","GP_ID":"211893464","BSTAR":"-0.00070617000000","MEAN_MOTION_DOT":"-0.00010775","OBJECT_ID":"2021-038AN","DECAY_DATE":null,"REF_FRAME":"TEME","COUNTRY_CODE":"US","OBJECT_TYPE":"PAYLOAD","PERIAPSIS":"546.408","TLE_LINE1":"1 48389U 21038AN  22249.48374298 -.00010775  00000-0 -70617-3 0  9996","RCS_SIZE":"LARGE","FILE":"3561164","CLASSIFICATION_TYPE":"U"},{"MEAN_MOTION_DOT":"-0.00002950","OBJECT_ID":"2021-038AP","DECAY_DATE":null,"REF_FRAME":"TEME","MEAN_ANOMALY":"255.3820","EPHEMERIS_TYPE":"0","GP_ID":"211893468","BSTAR":"-0.00017922000000","RCS_SIZE":"LARGE","FILE":"3561169","CLASSIFICATION_TYPE":"U","COUNTRY_CODE":"US","OBJECT_TYPE":"PAYLOAD","PERIAPSIS":"545.729","TLE_LINE1":"1 48390U 21038AP  22249.48100005 -.00002950  00000-0 -17922-3 0  9997","REV_AT_EPOCH":"7493","ARG_OF_PERICENTER":"104.7409","CENTER_NAME":"EARTH","SITE":"AFETR","PERIOD":"95.592","MEAN_MOTION_DDOT":"0.0000000000000","RA_OF_ASC_NODE":"328.7058","APOAPSIS":"548.723","EPOCH":"2022-09-06T11:32:38.404320","LAUNCH_DATE":"2021-05-04","TLE_LINE2":"2 48390  53.0556 328.7058 0002162 104.7409 255.3820 15.06395995 74939","NORAD_CAT_ID":"48390","MEAN_ELEMENT_THEORY":"SGP4","INCLINATION":"53.0556","TIME_SYSTEM":"UTC","ELEMENT_SET_NO":"999","SEMIMAJOR_AXIS":"6925.361","MEAN_MOTION":"15.06395995","ECCENTRICITY":"0.00021620","OBJECT_NAME":"STARLINK-2586"}];
